INMARSAT 4-F2           
1 28899U 05044A   26064.78794817 -.00000265  00000+0  00000+0 0  9990
2 28899   4.9600  43.8087 0002713 323.6628 223.1994  1.00271238 74487
GSAT-8                  
1 37605U 11022A   26065.16461495  .00000080  00000+0  00000+0 0  9998
2 37605   1.8647  83.1349 0007200 216.1771 338.8878  1.00273098 52182
LUCH-5A                 
1 37951U 11074B   26065.25812869 -.00000050  00000+0  00000+0 0  9992
2 37951   8.4918  75.3187 0003890 247.7042 101.0013  1.00275932 52017
SES-5                   
1 38652U 12036A   26064.86945597  .00000027  00000+0  00000+0 0  9994
2 38652   0.0593 310.9208 0002059  30.8824 139.7620  1.00271137 43420
GSAT-10                 
1 38779U 12051B   26065.17007498 -.00000170  00000+0  00000+0 0  9995
2 38779   0.0692 262.3594 0004459 177.1806 228.5534  1.00273396 49065
LUCH-5B                 
1 38977U 12061A   26065.22181520 -.00000140  00000+0  00000+0 0  9998
2 38977  10.2624  50.8867 0003706 226.9001 309.7014  1.00272155 48572
ASTRA 5B                
1 39617U 14011B   26065.22970190  .00000132  00000+0  00000+0 0  9996
2 39617   0.0872 300.4648 0004046  28.2198 301.4298  1.00271993 43639
LUCH-5V                 
1 39727U 14023A   26065.02984770 -.00000273  00000+0  00000+0 0  9995
2 39727   4.8790  70.7602 0003058 283.1507 275.3216  1.00271463 43324
GSAT-15                 
1 41028U 15065A   26065.10082801 -.00000263  00000+0  00000+0 0  9991
2 41028   0.0855 269.7149 0001104 106.5589 277.3204  1.00271608 37766
EUTELSAT 117 WEST B     
1 41589U 16038B   26064.98792982 -.00000018  00000+0  00000+0 0  9995
2 41589   0.0104 328.8615 0000350 267.7539 165.7653  1.00273781 35622
SES-15                  
1 42709U 17026A   26064.01780892  .00000050  00000+0  00000+0 0  9994
2 42709   0.0426 307.9199 0000713  39.5952  52.4724  1.00271060  6386
QZS-2 (MICHIBIKI-2)     
1 42738U 17028A   26064.73548161 -.00000170  00000+0  00000+0 0  9992
2 42738  39.5883 244.6601 0745486 270.3415  54.7958  1.00261653  6582
QZS-3 (MICHIBIKI-3)     
1 42917U 17048A   26065.24072523 -.00000353  00000+0  00000+0 0  9997
2 42917   0.0688 213.6075 0002286 145.5938  18.4220  1.00275459 31222
QZS-4 (MICHIBIKI-4)     
1 42965U 17062A   26064.74126170 -.00000341  00000+0  00000+0 0  9995
2 42965  40.1722 344.8064 0748494 269.9150 316.0784  1.00280691 30763
BEIDOU-3 G1             
1 43683U 18085A   26065.32408231 -.00000283  00000+0  00000+0 0  9990
2 43683   2.8155 100.3325 0001489  17.2822 303.1125  1.00268050 27023
EUTELSAT 5 WEST B       
1 44624U 19067A   26065.22398187 -.00000047  00000+0  00000+0 0  9992
2 44624   0.0915 312.4399 0003214  43.6437 243.4680  1.00273024 23400
BEIDOU-3 G2             
1 45344U 20017A   26064.81304906 -.00000145  00000+0  00000+0 0  9998
2 45344   2.6571  45.6818 0002799 312.9867 177.5975  1.00271514 22228
